{"type": "FeatureCollection", "features": [ {"type": "Feature", "properties": {"norad_id": 40664, "name": "SKY MEXICO-1", "group": "intelsat", "lat": 0.010594998831962448, "lon": -28.230899425548156, "alt_km": 35779.709491373134, "timestamp": "2025-12-16T21:38:56.838013+00:00", "meta": {"OBJECT_NAME": "SKY MEXICO-1", "OBJECT_ID": "2015-026B", "EPOCH": "2025-12-16T06:08:04.359264", "MEAN_MOTION": 1.00271585, "ECCENTRICITY": 0.00024063, "INCLINATION": 0.02, "RA_OF_ASC_NODE": 300.6052, "ARG_OF_PERICENTER": 340.8892, "MEAN_ANOMALY": 176.9102, "EPHEMERIS_TYPE": 0, "CLASSIFICATION_TYPE": "U", "NORAD_CAT_ID": 40664, "ELEMENT_SET_NO": 999, "REV_AT_EPOCH": 3862, "BSTAR": 0, "MEAN_MOTION_DOT": -2.11e-06, "MEAN_MOTION_DDOT": 0}, "tle": {"line1": "1 40664U 15026B   25350.25560601 -.00000211  00000+0  00000+0 0  9997", "line2": "2 40664   0.0200 300.6052 0002406 340.8892 176.9102  1.00271585 38620"}}, "geometry": {"type": "Point", "coordinates": [-28.230899425548156, 0.010594998831962448]}}, {"type": "Feature", "properties": {"norad_id": 40874, "name": "INTELSAT 34 (IS-34)", "group": "intelsat", "lat": 0.019269637738051803, "lon": -4.993098983092959, "alt_km": 35789.228648893615, "timestamp": "2025-12-16T21:38:56.838025+00:00", "meta": {"OBJECT_NAME": "INTELSAT 34 (IS-34)", "OBJECT_ID": "2015-039A", "EPOCH": "2025-12-16T06:14:41.225568", "MEAN_MOTION": 1.00270188, "ECCENTRICITY": 7.1e-05, "INCLINATION": 0.0143, "RA_OF_ASC_NODE": 308.8228, "ARG_OF_PERICENTER": 198.1225, "MEAN_ANOMALY": 336.3837, "EPHEMERIS_TYPE": 0, "CLASSIFICATION_TYPE": "U", "NORAD_CAT_ID": 40874, "ELEMENT_SET_NO": 999, "REV_AT_EPOCH": 3779, "BSTAR": 0, "MEAN_MOTION_DOT": -2.62e-06, "MEAN_MOTION_DDOT": 0}, "tle": {"line1": "1 40874U 15039A   25350.26019937 -.00000262  00000+0  00000+0 0  9992", "line2": "2 40874   0.0143 308.8228 0000710 198.1225 336.3837  1.00270188 37796"}}, "geometry": {"type": "Point", "coordinates": [-4.993098983092959, 0.019269637738051803]}}, {"type": "Feature", "properties": {"norad_id": 41581, "name": "INTELSAT 31 (IS-31)", "group": "intelsat", "lat": 0.004477319708524888, "lon": -44.52533650297728, "alt_km": 35788.30649721752, "timestamp": "2025-12-16T21:38:56.838037+00:00", "meta": {"OBJECT_NAME": "INTELSAT 31 (IS-31)", "OBJECT_ID": "2016-035A", "EPOCH": "2025-12-16T08:22:38.632800", "MEAN_MOTION": 1.002711, "ECCENTRICITY": 0.00017736, "INCLINATION": 0.0175, "RA_OF_ASC_NODE": 276.175, "ARG_OF_PERICENTER": 293.3702, "MEAN_ANOMALY": 266.3024, "EPHEMERIS_TYPE": 0, "CLASSIFICATION_TYPE": "U", "NORAD_CAT_ID": 41581, "ELEMENT_SET_NO": 999, "REV_AT_EPOCH": 3485, "BSTAR": 0, "MEAN_MOTION_DOT": -1.27e-06, "MEAN_MOTION_DDOT": 0}, "tle": {"line1": "1 41581U 16035A   25350.34905825 -.00000127  00000+0  00000+0 0  9994", "line2": "2 41581   0.0175 276.1750 0001773 293.3702 266.3024  1.00271100 34851"}}, "geometry": {"type": "Point", "coordinates": [-44.52533650297728, 0.004477319708524888]}}, {"type": "Feature", "properties": {"norad_id": 41747, "name": "INTELSAT 36 (IS-36)", "group": "intelsat", "lat": 0.027085073412004716, "lon": 119.00204366836763, "alt_km": 35790.522830177135, "timestamp": "2025-12-16T21:38:56.838049+00:00", "meta": {"OBJECT_NAME": "INTELSAT 36 (IS-36)", "OBJECT_ID": "2016-053A", "EPOCH": "2025-12-16T05:07:10.193088", "MEAN_MOTION": 1.00271004, "ECCENTRICITY": 0.00011564, "INCLINATION": 0.0112, "RA_OF_ASC_NODE": 355.9066, "ARG_OF_PERICENTER": 332.2537, "MEAN_ANOMALY": 262.2259, "EPHEMERIS_TYPE": 0, "CLASSIFICATION_TYPE": "U", "NORAD_CAT_ID": 41747, "ELEMENT_SET_NO": 999, "REV_AT_EPOCH": 3411, "BSTAR": 0, "MEAN_MOTION_DOT": -1e-08, "MEAN_MOTION_DDOT": 0}, "tle": {"line1": "1 41747U 16053A   25350.21331242 -.00000001  00000+0  00000+0 0  9991", "line2": "2 41747   0.0112 355.9066 0001156 332.2537 262.2259  1.00271004 34113"}}, "geometry": {"type": "Point", "coordinates": [119.00204366836763, 0.027085073412004716]}}, {"type": "Feature", "properties": {"norad_id": 41945, "name": "INTELSAT 32E (IS-32E)", "group": "intelsat", "lat": -0.012357835194708587, "lon": 7.333841042940671, "alt_km": 35784.18940816215, "timestamp": "2025-12-16T21:38:56.838060+00:00", "meta": {"OBJECT_NAME": "INTELSAT 32E (IS-32E)", "OBJECT_ID": "2017-007B", "EPOCH": "2025-12-16T04:35:28.228416", "MEAN_MOTION": 1.00271613, "ECCENTRICITY": 5.242e-05, "INCLINATION": 0.0304, "RA_OF_ASC_NODE": 75.3547, "ARG_OF_PERICENTER": 315.6867, "MEAN_ANOMALY": 79.7377, "EPHEMERIS_TYPE": 0, "CLASSIFICATION_TYPE": "U", "NORAD_CAT_ID": 41945, "ELEMENT_SET_NO": 999, "REV_AT_EPOCH": 3239, "BSTAR": 0, "MEAN_MOTION_DOT": -2.46e-06, "MEAN_MOTION_DDOT": 0}, "tle": {"line1": "1 41945U 17007B   25350.19129894 -.00000246  00000+0  00000+0 0  9997", "line2": "2 41945   0.0304  75.3547 0000524 315.6867  79.7377  1.00271613 32398"}}, "geometry": {"type": "Point", "coordinates": [7.333841042940671, -0.012357835194708587]}}, {"type": "Feature", "properties": {"norad_id": 42818, "name": "INTELSAT 35E (IS-35E)", "group": "intelsat", "lat": 0.0220325507054557, "lon": 16.028692595247765, "alt_km": 35788.94415561167, "timestamp": "2025-12-16T21:38:56.838072+00:00", "meta": {"OBJECT_NAME": "INTELSAT 35E (IS-35E)", "OBJECT_ID": "2017-041A", "EPOCH": "2025-12-16T06:20:40.652160", "MEAN_MOTION": 1.00270385, "ECCENTRICITY": 0.00018424, "INCLINATION": 0.025, "RA_OF_ASC_NODE": 354.7486, "ARG_OF_PERICENTER": 273.3029, "MEAN_ANOMALY": 237.7765, "EPHEMERIS_TYPE": 0, "CLASSIFICATION_TYPE": "U", "NORAD_CAT_ID": 42818, "ELEMENT_SET_NO": 999, "REV_AT_EPOCH": 3098, "BSTAR": 0, "MEAN_MOTION_DOT": 0, "MEAN_MOTION_DDOT": 0}, "tle": {"line1": "1 42818U 17041A   25350.26435940  .00000000  00000+0  00000+0 0  9992", "line2": "2 42818   0.0250 354.7486 0001842 273.3029 237.7765  1.00270385 30983"}}, "geometry": {"type": "Point", "coordinates": [16.028692595247765, 0.0220325507054557]}}, {"type": "Feature", "properties": {"norad_id": 42950, "name": "INTELSAT 37E (IS-37E)", "group": "intelsat", "lat": 0.015565223860775983, "lon": 32.53641805372505, "alt_km": 35795.081820210304, "timestamp": "2025-12-16T21:38:56.838084+00:00", "meta": {"OBJECT_NAME": "INTELSAT 37E (IS-37E)", "OBJECT_ID": "2017-059A", "EPOCH": "2025-12-16T06:25:25.197600", "MEAN_MOTION": 1.00271377, "ECCENTRICITY": 0.00029523, "INCLINATION": 0.0016, "RA_OF_ASC_NODE": 6.7937, "ARG_OF_PERICENTER": 250.5607, "MEAN_ANOMALY": 266.1638, "EPHEMERIS_TYPE": 0, "CLASSIFICATION_TYPE": "U", "NORAD_CAT_ID": 42950, "ELEMENT_SET_NO": 999, "REV_AT_EPOCH": 3023, "BSTAR": 0, "MEAN_MOTION_DOT": -1.17e-06, "MEAN_MOTION_DDOT": 0}, "tle": {"line1": "1 42950U 17059A   25350.26765275 -.00000117  00000+0  00000+0 0  9995", "line2": "2 42950   0.0016   6.7937 0002952 250.5607 266.1638  1.00271377 30232"}}, "geometry": {"type": "Point", "coordinates": [32.53641805372505, 0.015565223860775983]}}, {"type": "Feature", "properties": {"norad_id": 43632, "name": "AZERSPACE 2 (IS-38)", "group": "intelsat", "lat": 0.0219941453097307, "lon": 95.62259958997998, "alt_km": 35791.07181339748, "timestamp": "2025-12-16T21:38:56.838096+00:00", "meta": {"OBJECT_NAME": "AZERSPACE 2 (IS-38)", "OBJECT_ID": "2018-074A", "EPOCH": "2025-12-16T05:00:40.815072", "MEAN_MOTION": 1.00271552, "ECCENTRICITY": 0.00011895, "INCLINATION": 0.0072, "RA_OF_ASC_NODE": 313.4354, "ARG_OF_PERICENTER": 316.5956, "MEAN_ANOMALY": 295.355, "EPHEMERIS_TYPE": 0, "CLASSIFICATION_TYPE": "U", "NORAD_CAT_ID": 43632, "ELEMENT_SET_NO": 999, "REV_AT_EPOCH": 2661, "BSTAR": 0, "MEAN_MOTION_DOT": 1.6e-06, "MEAN_MOTION_DDOT": 0}, "tle": {"line1": "1 43632U 18074A   25350.20880573  .00000160  00000+0  00000+0 0  9991", "line2": "2 43632   0.0072 313.4354 0001189 316.5956 295.3550  1.00271552 26613"}}, "geometry": {"type": "Point", "coordinates": [95.62259958997998, 0.0219941453097307]}}, {"type": "Feature", "properties": {"norad_id": 43633, "name": "HORIZONS-3E", "group": "intelsat", "lat": -0.017502708517752465, "lon": -140.51843875192628, "alt_km": 35785.21795062783, "timestamp": "2025-12-16T21:38:56.838107+00:00", "meta": {"OBJECT_NAME": "HORIZONS-3E", "OBJECT_ID": "2018-074B", "EPOCH": "2025-12-16T02:10:37.735392", "MEAN_MOTION": 1.00270092, "ECCENTRICITY": 7.875e-05, "INCLINATION": 0.0482, "RA_OF_ASC_NODE": 188.3372, "ARG_OF_PERICENTER": 98.0418, "MEAN_ANOMALY": 0.2482, "EPHEMERIS_TYPE": 0, "CLASSIFICATION_TYPE": "U", "NORAD_CAT_ID": 43633, "ELEMENT_SET_NO": 999, "REV_AT_EPOCH": 2650, "BSTAR": 0, "MEAN_MOTION_DOT": -8e-08, "MEAN_MOTION_DDOT": 0}, "tle": {"line1": "1 43633U 18074B   25350.09071453 -.00000008  00000+0  00000+0 0  9990", "line2": "2 43633   0.0482 188.3372 0000787  98.0418   0.2482  1.00270092 26509"}}, "geometry": {"type": "Point", "coordinates": [-140.51843875192628, -0.017502708517752465]}}, {"type": "Feature", "properties": {"norad_id": 44333, "name": "AT&T T-16", "group": "intelsat", "lat": -0.025209178606871645, "lon": -50.345389724800505, "alt_km": 35790.124017223345, "timestamp": "2025-12-16T21:38:56.838119+00:00", "meta": {"OBJECT_NAME": "AT&T T-16", "OBJECT_ID": "2019-034A", "EPOCH": "2025-12-16T08:22:38.632800", "MEAN_MOTION": 1.00270208, "ECCENTRICITY": 8.583e-05, "INCLINATION": 0.0212, "RA_OF_ASC_NODE": 59.6509, "ARG_OF_PERICENTER": 76.9451, "MEAN_ANOMALY": 333.4516, "EPHEMERIS_TYPE": 0, "CLASSIFICATION_TYPE": "U", "NORAD_CAT_ID": 44333, "ELEMENT_SET_NO": 999, "REV_AT_EPOCH": 2380, "BSTAR": 0, "MEAN_MOTION_DOT": -9.2e-07, "MEAN_MOTION_DDOT": 0}, "tle": {"line1": "1 44333U 19034A   25350.34905825 -.00000092  00000+0  00000+0 0  9995", "line2": "2 44333   0.0212  59.6509 0000858  76.9451 333.4516  1.00270208 23809"}}, "geometry": {"type": "Point", "coordinates": [-50.345389724800505, -0.025209178606871645]}}]}